     2.100          NAVIGATION                              RINEX VERSION / TYPE
fic2rin                                 08/08/2009 01:14:54 PGM / RUN BY / DATE
                                                            END OF HEADER
17 09  8  7 16  0  0.0  .756820663810D-04  .261479726760D-11  .000000000000D+00
     .710000000000D+02 -.215000000000D+02  .430053627746D-08 -.349118297150D+00
    -.126473605633D-05  .460608035792D-02  .124424695969D-04  .515372477722D+04
     .489600000000D+06  .670552253723D-07 -.268038463986D+01  .856816768646D-07
     .960186424693D+00  .139937500000D+03 -.263548639518D+01 -.792497296408D-08
     .828605943335D-10  .100000000000D+01  .154300000000D+04  .000000000000D+00
     .240000000000D+01  .000000000000D+00 -.102445483208D-07  .710000000000D+02
     .482406000000D+06  .400000000000D+01
18 09  8  7 16  0  0.0  .327406451106D-05  .295585778076D-11  .000000000000D+00
     .400000000000D+01 -.445937500000D+02  .509771234018D-08  .976196045707D+00
    -.238791108131D-05  .108040616615D-01  .694207847118D-05  .515361248207D+04
     .489600000000D+06 -.167638063431D-06 -.575712959773D+00  .465661287308D-07
     .941299321352D+00  .236343750000D+03 -.239589227323D+01 -.844392315186D-08
    -.510021244432D-09  .100000000000D+01  .154300000000D+04  .000000000000D+00
     .240000000000D+01  .000000000000D+00 -.107102096081D-07  .400000000000D+01
     .482406000000D+06  .400000000000D+01
19 09  8  7 16  0  0.0  .160830095410D-04 -.147792889038D-11  .000000000000D+00
     .460000000000D+02 -.696875000000D+01  .424303388225D-08 -.972146540708D+00
    -.352039933205D-06  .578692229465D-02  .116620212793D-04  .515364251709D+04
     .489600000000D+06 -.111758708954D-06 -.262456502854D+01 -.158324837685D-06
     .957850200111D+00  .156312500000D+03 -.301144986960D+00 -.778782439415D-08
     .198579700213D-09  .100000000000D+01  .154300000000D+04  .000000000000D+00
     .240000000000D+01  .000000000000D+00 -.144354999065D-07  .460000000000D+02
     .482406000000D+06  .400000000000D+01
20 09  8  7 16  0  0.0  .753430649638D-04 -.909494701773D-12  .000000000000D+00
     .410000000000D+02 -.453437500000D+02  .508985487003D-08  .117097330365D+01
    -.242143869400D-05  .384532415774D-02  .668689608574D-05  .515379080009D+04
     .489600000000D+06 -.726431608200D-07 -.629579574002D+00  .000000000000D+00
     .940943463604D+00  .236687500000D+03  .133772604413D+01 -.842606526515D-08
    -.388230457071D-09  .100000000000D+01  .154300000000D+04  .000000000000D+00
     .240000000000D+01  .000000000000D+00 -.651925802231D-08  .410000000000D+02
     .482406000000D+06  .400000000000D+01
21 09  8  7 16  0  0.0 -.177789479494D-05 -.216004991671D-11  .000000000000D+00
     .470000000000D+02  .420312500000D+02  .532450750140D-08  .224394460896D+01
     .200048089027D-05  .154949566349D-01  .540167093277D-05  .515376120567D+04
     .489600000000D+06 -.324100255966D-06 -.163426207403D+01 -.154599547386D-06
     .933287795320D+00  .262468750000D+03 -.256884560076D+01 -.843749431265D-08
     .311084386485D-09  .100000000000D+01  .154300000000D+04  .000000000000D+00
     .240000000000D+01  .000000000000D+00 -.121071934700D-07  .470000000000D+02
     .482406000000D+06  .400000000000D+01
22 09  8  7 16  0  0.0  .193814747036D-03 -.682121026330D-12  .000000000000D+00
     .270000000000D+02 -.464375000000D+02  .512378485478D-08 -.466755570243D-01
    -.245682895184D-05  .525836599991D-02  .713951885700D-05  .515365597534D+04
     .489600000000D+06 -.106170773506D-06 -.570177288001D+00  .745058059692D-07
     .938971347628D+00  .232500000000D+03 -.189660117376D+01 -.842142221461D-08
    -.362157942475D-09  .100000000000D+01  .154300000000D+04  .000000000000D+00
     .240000000000D+01  .000000000000D+00 -.176951289177D-07  .270000000000D+02
     .482406000000D+06  .400000000000D+01
23 09  8  7 16  0  0.0  .389660708606D-03 -.227373675443D-12  .000000000000D+00
     .260000000000D+02  .596562500000D+02  .409909931537D-08 -.149665124539D+01
     .271573662758D-05  .640867871698D-02  .117383897305D-04  .515358791733D+04
     .489600000000D+06 -.186264514923D-08  .448908875222D+00 -.875443220139D-07
     .970336497039D+00  .161531250000D+03  .293514363542D+01 -.776139472182D-08
     .199651173416D-09  .100000000000D+01  .154300000000D+04  .000000000000D+00
     .240000000000D+01  .000000000000D+00 -.200234353542D-07  .260000000000D+02
     .482406000000D+06  .400000000000D+01
24 09  8  7 16  0  0.0  .210520345718D-03  .306954461848D-11  .000000000000D+00
     .640000000000D+02  .372187500000D+02  .501270879944D-08  .888674022372D+00
     .195764005184D-05  .657553772908D-02  .514648854733D-05  .515366404343D+04
     .489600000000D+06  .134110450745D-06 -.160087732233D+01 -.894069671631D-07
     .949902239333D+00  .272562500000D+03 -.644894641010D+00 -.839784980415D-08
     .350728894981D-09  .100000000000D+01  .154300000000D+04  .000000000000D+00
     .240000000000D+01  .000000000000D+00 -.139698386192D-08  .640000000000D+02
     .482406000000D+06  .400000000000D+01
25 09  8  7 16  0  0.0  .542934983969D-03  .161435309565D-10  .000000000000D+00
     .480000000000D+02  .802187500000D+02  .469769567788D-08  .139961528794D+01
     .403635203838D-05  .112525048899D-01  .379793345928D-05  .515364316940D+04
     .489600000000D+06  .188127160072D-06  .139631351841D+01 -.266358256340D-06
     .970211088386D+00  .311593750000D+03 -.121015008889D+01 -.828034490960D-08
     .391087718945D-09  .100000000000D+01  .154300000000D+04  .000000000000D+00
     .240000000000D+01  .000000000000D+00 -.745058059692D-08  .480000000000D+02
     .482406000000D+06  .400000000000D+01
26 09  8  7 16  0  0.0  .646407715976D-04 -.227373675443D-12  .000000000000D+00
     .420000000000D+02  .561875000000D+02  .354229040776D-08  .281945269876D+01
     .274553894997D-05  .202174852602D-01  .116638839245D-04  .515491786194D+04
     .489600000000D+06  .502914190292D-07  .500086679669D+00 -.270083546638D-06
     .992722217242D+00  .169750000000D+03  .102976031573D+01 -.713315426736D-08
     .135719938995D-09  .100000000000D+01  .154300000000D+04  .000000000000D+00
     .240000000000D+01  .000000000000D+00 -.651925802231D-08  .420000000000D+02
     .482406000000D+06  .400000000000D+01
27 09  8  7 16  0  0.0  .722464174032D-04  .318323145621D-11  .000000000000D+00
     .910000000000D+02  .709687500000D+02  .472769692755D-08 -.711211014325D+00
     .384636223316D-05  .213055607164D-01  .470876693726D-05  .515375117111D+04
     .489600000000D+06 -.325962901115D-06  .143296236073D+01  .540167093277D-07
     .974943994102D+00  .304375000000D+03 -.156203815517D+01 -.865286042637D-08
     .440732643998D-09  .100000000000D+01  .154300000000D+04  .000000000000D+00
     .340000000000D+01  .000000000000D+00 -.419095158577D-08  .910000000000D+02
     .482406000000D+06  .400000000000D+01
28 09  8  7 16  0  0.0 -.261450186372D-04 -.113686837722D-12  .000000000000D+00
     .540000000000D+02 -.961875000000D+02  .468340936851D-08  .192972558310D+00
    -.486709177494D-05  .150007663760D-01  .575371086597D-05  .515365264320D+04
     .489600000000D+06 -.121071934700D-06  .256882047807D+01  .139698386192D-06
     .967470900921D+00  .272906250000D+03 -.202089380979D+01 -.854357015970D-08
    -.555380276675D-09  .100000000000D+01  .154300000000D+04  .000000000000D+00
     .340000000000D+01  .000000000000D+00 -.107102096081D-07  .540000000000D+02
     .482406000000D+06  .400000000000D+01
29 09  8  7 16  0  0.0  .465819612145D-04  .341060513165D-11  .000000000000D+00
     .320000000000D+02 -.230625000000D+02  .424589114412D-08  .223952242704D+01
    -.118277966976D-05  .326242996380D-02  .114124268293D-04  .515363968277D+04
     .489600000000D+06  .596046447754D-07 -.267218448810D+01  .316649675369D-07
     .960428890198D+00  .156656250000D+03 -.129065076961D+01 -.774246536190D-08
     .102861427448D-09  .100000000000D+01  .154300000000D+04  .000000000000D+00
     .240000000000D+01  .000000000000D+00 -.884756445885D-08  .320000000000D+02
     .482406000000D+06  .400000000000D+01
30 09  8  7 16  0  0.0  .166923739016D-03  .284217094304D-11  .000000000000D+00
     .500000000000D+02 -.872187500000D+02  .505556772755D-08  .695452785543D+00
    -.457279384136D-05  .117838168517D-01  .491738319397D-05  .515368549728D+04
     .489600000000D+06 -.134110450745D-06  .249475764924D+01 -.111758708954D-07
     .952903317757D+00  .284531250000D+03  .143932853548D+01 -.863893127473D-08
    -.458233372974D-09  .100000000000D+01  .154300000000D+04  .000000000000D+00
     .240000000000D+01  .000000000000D+00 -.838190317154D-08  .500000000000D+02
     .482406000000D+06  .400000000000D+01
31 09  8  7 16  0  0.0 -.646458938718D-04 -.341060513165D-12  .000000000000D+00
     .850000000000D+02  .657812500000D+02  .466698011274D-08  .300644473678D+01
     .357627868652D-05  .698450813070D-02  .328198075294D-05  .515376192093D+04
     .489600000000D+06  .160187482834D-06  .148894422576D+01  .175088644028D-06
     .973339883947D+00  .321812500000D+03 -.113770540106D+01 -.822927135361D-08
     .281440294547D-09  .100000000000D+01  .154300000000D+04  .000000000000D+00
     .340000000000D+01  .000000000000D+00 -.130385160446D-07  .850000000000D+02
     .482406000000D+06  .400000000000D+01
 7 09  8  7 15 59 44.0  .138184987009D-04 -.682121026330D-12  .000000000000D+00
     .110000000000D+02  .722187500000D+02  .479519973932D-08 -.307727900196D+01
     .388361513615D-05  .295949785504D-02  .301189720631D-05  .515365617180D+04
     .489584000000D+06 -.540167093277D-07  .149072063987D+01 -.279396772385D-07
     .967992102059D+00  .327625000000D+03  .289644605532D+01 -.834320467082D-08
     .370015412627D-09  .100000000000D+01  .154300000000D+04  .000000000000D+00
     .240000000000D+01  .000000000000D+00 -.107102096081D-07  .110000000000D+02
     .484986000000D+06  .400000000000D+01
